43249,IRIDIUM 144,2018,100.4,860.0,+,86.4,Active,1,LEO,USA,USA,Commercial/Government,Communications,Falcon,1 43249U 18030A   24194.63832771 -.00000004  00000+0 -84145-5 0  9993,2 43249  86.3967 224.8281 0002434  86.8723 273.2752 14.34217330329153,14.3421733,0.0002434,LEO
43250,IRIDIUM 149,2018,100.4,860.0,+,86.4,Active,1,LEO,USA,USA,Commercial/Government,Communications,Falcon,1 43250U 18030B   24194.50513094  .00000380  00000+0  12869-3 0  9992,2 43250  86.3961 224.8587 0002381  87.0134 273.1334 14.34219320329154,14.3421932,0.0002381,LEO
43251,IRIDIUM 157,2018,100.4,860.0,+,86.4,Active,1,LEO,USA,USA,Commercial/Government,Communications,Falcon,1 43251U 18030C   24194.80323329  .00000096  00000+0  27366-4 0  9999,2 43251  86.3963 224.7715 0001979  92.9168 267.2255 14.34217817329170,14.34217817,0.0001979,LEO
43252,IRIDIUM 140,2018,100.4,860.0,+,86.4,Active,1,LEO,USA,USA,Commercial/Government,Communications,Falcon,1 43252U 18030D   24194.82226288  .00000173  00000+0  54583-4 0  9995,2 43252  86.3963 224.7782 0002695  91.5696 268.5808 14.34217974329231,14.34217974,0.0002695,LEO
43253,IRIDIUM 145,2018,100.4,860.0,+,86.4,Active,1,LEO,USA,USA,Commercial/Government,Communications,Falcon,1 43253U 18030E   24194.80957779 -.00000039  00000+0 -20815-4 0  9994,2 43253  86.3968 224.7570 0002468  82.2682 277.8794 14.34217186329166,14.34217186,0.0002468,LEO
43254,IRIDIUM 146,2018,100.4,860.0,+,86.4,Active,1,LEO,USA,USA,Commercial/Government,Communications,Falcon,1 43254U 18030F   24195.13939233 -.00000008  00000+0 -98809-5 0  9992,2 43254  86.3967 224.6339 0002293  87.0617 273.0841 14.34217319329221,14.34217319,0.0002293,LEO
43255,IRIDIUM 148,2018,100.4,860.0,+,86.4,Active,1,LEO,USA,USA,Commercial/Government,Communications,Falcon,1 43255U 18030G   24195.17744651  .00000026  00000+0  21604-5 0  9992,2 43255  86.3963 224.6504 0002156  89.2417 270.9026 14.34217813329277,14.34217813,0.0002156,LEO
43256,IRIDIUM 142,2018,100.4,860.0,+,86.4,Active,1,LEO,USA,USA,Commercial/Government,Communications,Falcon,1 43256U 18030H   24194.58758671  .00000011  00000+0 -32825-5 0  9996,2 43256  86.3960 224.8114 0002468  84.1306 276.0171 14.34217433329143,14.34217433,0.0002468,LEO
